[{"OBJECT_NAME":"STARLINK-3306","OBJECT_ID":"2021-125H","EPOCH":"2026-03-09T22:53:36.225600","MEAN_MOTION":15.0881478,"ECCENTRICITY":0.00013466,"INCLINATION":53.2161,"RA_OF_ASC_NODE":237.9248,"ARG_OF_PERICENTER":89.9292,"MEAN_ANOMALY":270.1855,"EPHEMERIS_TYPE":0,"CLASSIFICATION_TYPE":"U","NORAD_CAT_ID":50163,"ELEMENT_SET_NO":999,"REV_AT_EPOCH":23677,"BSTAR":0.00031594804,"MEAN_MOTION_DOT":4.741e-5,"MEAN_MOTION_DDOT":0},{"OBJECT_NAME":"PRSC-S1","OBJECT_ID":"2025-164A","EPOCH":"2026-03-09T14:34:55.095168","MEAN_MOTION":15.0891951,"ECCENTRICITY":0.0004466,"INCLINATION":41.129,"RA_OF_ASC_NODE":129.3637,"ARG_OF_PERICENTER":348.3012,"MEAN_ANOMALY":11.7698,"EPHEMERIS_TYPE":0,"CLASSIFICATION_TYPE":"U","NORAD_CAT_ID":65055,"ELEMENT_SET_NO":999,"REV_AT_EPOCH":3340,"BSTAR":0.00046631,"MEAN_MOTION_DOT":7.316e-5,"MEAN_MOTION_DDOT":0}]
